KUIPER-00357            
1 68866U 26095C   26196.97498813  .00001520  00000+0  22842-3 0  9997
2 68866  51.9023 115.8608 0001175  88.6824 271.4273 14.79928934 11986
KUIPER-00364            
1 68867U 26095D   26196.93853572  .00002113  00000+0  30631-3 0  9995
2 68867  51.9042 118.5302 0001169 158.8122 201.2889 14.79908683 11942
KUIPER-00375            
1 68868U 26095E   26196.91668981 -.00030866  00000+0 -43887-2 0  9996
2 68868  51.9009 110.4828 0003373 100.4135 249.4205 14.76415879  5346
KUIPER-00433            
1 68869U 26095F   26196.82944881  .00001536  00000+0  23027-3 0  9998
2 68869  51.9006 126.5033 0001098  85.3688 274.7399 14.79958097 11828
KUIPER-00437            
1 68870U 26095G   26196.93756482  .00017080  00000+0  44944-3 0  9992
2 68870  51.8801 103.2603 0008373  54.4389 305.7378 15.38634170 12153
KUIPER-00448            
1 68871U 26095H   26196.16676892  .00001040  00000+0  17868-3 0  9998
2 68871  51.9039 117.7022 0001466 166.7653 193.3347 14.76431520 11881
KUIPER-00459            
1 68872U 26095J   26196.91668981 -.01760091  00000+0 -10966+0 0  9991
2 68872  51.8828 105.4104 0009390  44.5991 194.7838 15.12344970  3451
KUIPER-00468            
1 68873U 26095K   26196.91668981 -.01207185  00000+0 -60980-1 0  9995
2 68873  51.8876 104.0947 0004495  23.2451 248.0416 15.19554605  2731
KUIPER-00476            
1 68874U 26095L   26196.91668981 -.00024185  00000+0 -72770-3 0  9994
2 68874  51.8731 104.5294 0010340  50.9659 321.0844 15.33395871  3670
KUIPER-00478            
1 68875U 26095M   26196.91668981 -.00056013  00000+0 -51040-2 0  9996
2 68875  51.8924 106.3814 0005667  30.5529 179.1443 14.94855209  4916
KUIPER-00480            
1 68876U 26095N   26196.91668981 -.01921708  00000+0 -12652+0 0  9993
2 68876  51.8837 104.6775 0006074  38.9947 284.1762 15.10723967  2841
KUIPER-00482            
1 68877U 26095P   26196.92176605  .00001008  00000+0  17416-3 0  9998
2 68877  51.9020 113.3639 0000699 244.5812 115.5077 14.76418195 12017
KUIPER-00483            
1 68878U 26095Q   26196.23375329  .00000942  00000+0  16447-3 0  9996
2 68878  51.8990 128.8916 0001306 246.4410 113.6413 14.76519777 11732
KUIPER-00488            
1 68879U 26095R   26196.91668981 -.00081021  00000+0 -96541-2 0  9992
2 68879  51.9000 108.7019 0009220  76.2278 254.7246 14.84271621  5322
KUIPER-00489            
1 68880U 26095S   26196.91668981 -.01131014  00000+0 -43417-1 0  9996
2 68880  51.8774 104.7136 0012932  49.2232 238.1948 15.28853060  4147
KUIPER-00499            
1 68881U 26095T   26196.91668981 -.00057464  00000+0 -47147-2 0  9997
2 68881  51.8909 107.0400 0006928  59.2245  63.0667 14.98923515  3007
