{"fetched_at":"2026-07-16T06:42:31.905Z","source":"https://celestrak.org/NORAD/elements/gp.php?GROUP=kuiper&FORMAT=JSON","constellation":"kuiper","records":[{"OBJECT_NAME":"KUIPER-00357","OBJECT_ID":"2026-095C","EPOCH":"2026-07-15T23:23:58.974432","CLASSIFICATION_TYPE":"U","MEAN_MOTION":14.79928934,"ECCENTRICITY":0.00011754,"INCLINATION":51.9023,"RA_OF_ASC_NODE":115.8608,"ARG_OF_PERICENTER":88.6824,"MEAN_ANOMALY":271.4273,"EPHEMERIS_TYPE":0,"NORAD_CAT_ID":68866,"ELEMENT_SET_NO":999,"REV_AT_EPOCH":1198,"BSTAR":0.00022841577,"MEAN_MOTION_DOT":0.0000152,"MEAN_MOTION_DDOT":0},{"OBJECT_NAME":"KUIPER-00364","OBJECT_ID":"2026-095D","EPOCH":"2026-07-15T22:31:29.486208","CLASSIFICATION_TYPE":"U","MEAN_MOTION":14.79908683,"ECCENTRICITY":0.00011693,"INCLINATION":51.9042,"RA_OF_ASC_NODE":118.5302,"ARG_OF_PERICENTER":158.8122,"MEAN_ANOMALY":201.2889,"EPHEMERIS_TYPE":0,"NORAD_CAT_ID":68867,"ELEMENT_SET_NO":999,"REV_AT_EPOCH":1194,"BSTAR":0.00030631286,"MEAN_MOTION_DOT":0.00002113,"MEAN_MOTION_DDOT":0},{"OBJECT_NAME":"KUIPER-00375","OBJECT_ID":"2026-095E","EPOCH":"2026-07-15T22:00:01.999584","CLASSIFICATION_TYPE":"U","MEAN_MOTION":14.76415879,"ECCENTRICITY":0.00033732,"INCLINATION":51.9009,"RA_OF_ASC_NODE":110.4828,"ARG_OF_PERICENTER":100.4135,"MEAN_ANOMALY":249.4205,"EPHEMERIS_TYPE":0,"NORAD_CAT_ID":68868,"ELEMENT_SET_NO":999,"REV_AT_EPOCH":534,"BSTAR":-0.0043886901,"MEAN_MOTION_DOT":-0.00030866,"MEAN_MOTION_DDOT":0},{"OBJECT_NAME":"KUIPER-00433","OBJECT_ID":"2026-095F","EPOCH":"2026-07-15T19:54:24.377184","CLASSIFICATION_TYPE":"U","MEAN_MOTION":14.79958097,"ECCENTRICITY":0.00010981,"INCLINATION":51.9006,"RA_OF_ASC_NODE":126.5033,"ARG_OF_PERICENTER":85.3688,"MEAN_ANOMALY":274.7399,"EPHEMERIS_TYPE":0,"NORAD_CAT_ID":68869,"ELEMENT_SET_NO":999,"REV_AT_EPOCH":1182,"BSTAR":0.00023027018,"MEAN_MOTION_DOT":0.00001536,"MEAN_MOTION_DDOT":0},{"OBJECT_NAME":"KUIPER-00437","OBJECT_ID":"2026-095G","EPOCH":"2026-07-15T22:30:05.600448","CLASSIFICATION_TYPE":"U","MEAN_MOTION":15.3863417,"ECCENTRICITY":0.00083738,"INCLINATION":51.8801,"RA_OF_ASC_NODE":103.2603,"ARG_OF_PERICENTER":54.4389,"MEAN_ANOMALY":305.7378,"EPHEMERIS_TYPE":0,"NORAD_CAT_ID":68870,"ELEMENT_SET_NO":999,"REV_AT_EPOCH":1215,"BSTAR":0.00044944157,"MEAN_MOTION_DOT":0.0001708,"MEAN_MOTION_DDOT":0},{"OBJECT_NAME":"KUIPER-00448","OBJECT_ID":"2026-095H","EPOCH":"2026-07-15T04:00:08.834688","CLASSIFICATION_TYPE":"U","MEAN_MOTION":14.7643152,"ECCENTRICITY":0.00014668,"INCLINATION":51.9039,"RA_OF_ASC_NODE":117.7022,"ARG_OF_PERICENTER":166.7653,"MEAN_ANOMALY":193.3347,"EPHEMERIS_TYPE":0,"NORAD_CAT_ID":68871,"ELEMENT_SET_NO":999,"REV_AT_EPOCH":1188,"BSTAR":0.00017868257,"MEAN_MOTION_DOT":0.0000104,"MEAN_MOTION_DDOT":0},{"OBJECT_NAME":"KUIPER-00459","OBJECT_ID":"2026-095J","EPOCH":"2026-07-15T22:00:01.999584","CLASSIFICATION_TYPE":"U","MEAN_MOTION":15.1234497,"ECCENTRICITY":0.00093909,"INCLINATION":51.8828,"RA_OF_ASC_NODE":105.4104,"ARG_OF_PERICENTER":44.5991,"MEAN_ANOMALY":194.7838,"EPHEMERIS_TYPE":0,"NORAD_CAT_ID":68872,"ELEMENT_SET_NO":999,"REV_AT_EPOCH":345,"BSTAR":-0.10966085,"MEAN_MOTION_DOT":-0.01760091,"MEAN_MOTION_DDOT":0},{"OBJECT_NAME":"KUIPER-00468","OBJECT_ID":"2026-095K","EPOCH":"2026-07-15T22:00:01.999584","CLASSIFICATION_TYPE":"U","MEAN_MOTION":15.19554605,"ECCENTRICITY":0.00044958,"INCLINATION":51.8876,"RA_OF_ASC_NODE":104.0947,"ARG_OF_PERICENTER":23.2451,"MEAN_ANOMALY":248.0416,"EPHEMERIS_TYPE":0,"NORAD_CAT_ID":68873,"ELEMENT_SET_NO":999,"REV_AT_EPOCH":273,"BSTAR":-0.060979905,"MEAN_MOTION_DOT":-0.01207185,"MEAN_MOTION_DDOT":0},{"OBJECT_NAME":"KUIPER-00476","OBJECT_ID":"2026-095L","EPOCH":"2026-07-15T22:00:01.999584","CLASSIFICATION_TYPE":"U","MEAN_MOTION":15.33395871,"ECCENTRICITY":0.00103404,"INCLINATION":51.8731,"RA_OF_ASC_NODE":104.5294,"ARG_OF_PERICENTER":50.9659,"MEAN_ANOMALY":321.0844,"EPHEMERIS_TYPE":0,"NORAD_CAT_ID":68874,"ELEMENT_SET_NO":999,"REV_AT_EPOCH":367,"BSTAR":-0.00072769701,"MEAN_MOTION_DOT":-0.00024185,"MEAN_MOTION_DDOT":0},{"OBJECT_NAME":"KUIPER-00478","OBJECT_ID":"2026-095M","EPOCH":"2026-07-15T22:00:01.999584","CLASSIFICATION_TYPE":"U","MEAN_MOTION":14.94855209,"ECCENTRICITY":0.00056679,"INCLINATION":51.8924,"RA_OF_ASC_NODE":106.3814,"ARG_OF_PERICENTER":30.5529,"MEAN_ANOMALY":179.1443,"EPHEMERIS_TYPE":0,"NORAD_CAT_ID":68875,"ELEMENT_SET_NO":999,"REV_AT_EPOCH":491,"BSTAR":-0.0051039942,"MEAN_MOTION_DOT":-0.00056013,"MEAN_MOTION_DDOT":0},{"OBJECT_NAME":"KUIPER-00480","OBJECT_ID":"2026-095N","EPOCH":"2026-07-15T22:00:01.999584","CLASSIFICATION_TYPE":"U","MEAN_MOTION":15.10723967,"ECCENTRICITY":0.00060741,"INCLINATION":51.8837,"RA_OF_ASC_NODE":104.6775,"ARG_OF_PERICENTER":38.9947,"MEAN_ANOMALY":284.1762,"EPHEMERIS_TYPE":0,"NORAD_CAT_ID":68876,"ELEMENT_SET_NO":999,"REV_AT_EPOCH":284,"BSTAR":-0.12651581,"MEAN_MOTION_DOT":-0.01921708,"MEAN_MOTION_DDOT":0},{"OBJECT_NAME":"KUIPER-00482","OBJECT_ID":"2026-095P","EPOCH":"2026-07-15T22:07:20.586720","CLASSIFICATION_TYPE":"U","MEAN_MOTION":14.76418195,"ECCENTRICITY":0.00006991,"INCLINATION":51.902,"RA_OF_ASC_NODE":113.3639,"ARG_OF_PERICENTER":244.5812,"MEAN_ANOMALY":115.5077,"EPHEMERIS_TYPE":0,"NORAD_CAT_ID":68877,"ELEMENT_SET_NO":999,"REV_AT_EPOCH":1201,"BSTAR":0.0001741625,"MEAN_MOTION_DOT":0.00001008,"MEAN_MOTION_DDOT":0},{"OBJECT_NAME":"KUIPER-00483","OBJECT_ID":"2026-095Q","EPOCH":"2026-07-15T05:36:36.284256","CLASSIFICATION_TYPE":"U","MEAN_MOTION":14.76519777,"ECCENTRICITY":0.00013061,"INCLINATION":51.899,"RA_OF_ASC_NODE":128.8916,"ARG_OF_PERICENTER":246.441,"MEAN_ANOMALY":113.6413,"EPHEMERIS_TYPE":0,"NORAD_CAT_ID":68878,"ELEMENT_SET_NO":999,"REV_AT_EPOCH":1173,"BSTAR":0.00016447358,"MEAN_MOTION_DOT":0.00000942,"MEAN_MOTION_DDOT":0},{"OBJECT_NAME":"KUIPER-00488","OBJECT_ID":"2026-095R","EPOCH":"2026-07-15T22:00:01.999584","CLASSIFICATION_TYPE":"U","MEAN_MOTION":14.84271621,"ECCENTRICITY":0.00092203,"INCLINATION":51.9,"RA_OF_ASC_NODE":108.7019,"ARG_OF_PERICENTER":76.2278,"MEAN_ANOMALY":254.7246,"EPHEMERIS_TYPE":0,"NORAD_CAT_ID":68879,"ELEMENT_SET_NO":999,"REV_AT_EPOCH":532,"BSTAR":-0.0096541238,"MEAN_MOTION_DOT":-0.00081021,"MEAN_MOTION_DDOT":0},{"OBJECT_NAME":"KUIPER-00489","OBJECT_ID":"2026-095S","EPOCH":"2026-07-15T22:00:01.999584","CLASSIFICATION_TYPE":"U","MEAN_MOTION":15.2885306,"ECCENTRICITY":0.00129327,"INCLINATION":51.8774,"RA_OF_ASC_NODE":104.7136,"ARG_OF_PERICENTER":49.2232,"MEAN_ANOMALY":238.1948,"EPHEMERIS_TYPE":0,"NORAD_CAT_ID":68880,"ELEMENT_SET_NO":999,"REV_AT_EPOCH":414,"BSTAR":-0.043416818,"MEAN_MOTION_DOT":-0.01131014,"MEAN_MOTION_DDOT":0},{"OBJECT_NAME":"KUIPER-00499","OBJECT_ID":"2026-095T","EPOCH":"2026-07-15T22:00:01.999584","CLASSIFICATION_TYPE":"U","MEAN_MOTION":14.98923515,"ECCENTRICITY":0.00069285,"INCLINATION":51.8909,"RA_OF_ASC_NODE":107.04,"ARG_OF_PERICENTER":59.2245,"MEAN_ANOMALY":63.0667,"EPHEMERIS_TYPE":0,"NORAD_CAT_ID":68881,"ELEMENT_SET_NO":999,"REV_AT_EPOCH":300,"BSTAR":-0.0047147219,"MEAN_MOTION_DOT":-0.00057464,"MEAN_MOTION_DDOT":0}]}
